#dP2026  6  9  0  0  0.00000000     289 d+D   IGc20 FIT AIUB
## 2422 172800.00000000   300.00000000 61200 0.0000000000000
+  115   G01G02G03G04G05G06G07G08G09G10G11G12G13G14G15G16G17
+        G18G19G20G21G22G23G24G25G26G27G28G29G30G31G32R02R03
+        R05R06R07R08R09R11R12R14R15R16R17R18R19R20R21R22R24
+        R26E02E03E04E05E06E07E08E09E10E11E12E13E14E15E16E18
+        E19E21E23E25E26E27E28E29E30E31E32E33E34E36C06C07C08
+        C11C12C13C14C19C20C21C22C23C24C25C26C27C28C29C30C31
+        C32C33C34C35C36C37C38C39C41C42J02J03J04  0  0  0  0
++         5  5  5  5  5  5  5  5  5  5  5  5  5  5  5  5  5
++         5  5  5  5  5  5  5  5  5  5  5  5  5  5  5  5  5
++         5  5  5  5  5  5  5  5  5  5  5  5  5  5  5  5  5
++         5  5  5  5  5  5  5  5  5  5  5  5  5  5  5  5  5
++         5  5  5  5  5  5  5  5  5  5  5  5  5  5  5  5  5
++         5  6  5  5  5  5  5  5  5  5  5  5  5  5  5  5  5
++         5  5  5  5  5  5  5  5  5  5  5  5  5  0  0  0  0
%c M  cc GPS ccc cccc cccc cccc cccc ccccc ccccc ccccc ccccc
%c cc cc ccc ccc cccc cccc cccc cccc ccccc ccccc ccccc ccccc
%f  1.2500000  1.025000000  0.00000000000  0.000000000000000
%f  0.0000000  0.000000000  0.00000000000  0.000000000000000
%i    0    0    0    0      0      0      0      0         0
%i    0    0    0    0      0      0      0      0         0
/* Center for Orbit Determination in Europe (CODE)                              
/* MGEX orbits and clocks for year-day 2026-1600                                
/* Middle day of a 3-day long-arc multi-GNSS solution                           
/* Systems considered: GPS/GLONASS/Galileo/BeiDou/QZSS                          
/* Product reference - DOI 10.48620/97775                                       
/* PCV:IGS20_2417 OL/AL:FES2014b NONE     YN ORB:CoN CLK:CoN                    
*  2026  6  9  3 25  0.00000000
PG01 -20258.866293 -15582.250541  -7393.740159    252.881399
PG02 -14089.768863 -15812.783169 -16007.928191    115.163854
PG03 -11393.007121 -19783.102552  13458.243106    428.750326
PG04 -14253.554339  -7486.932737  21186.944571     59.540886
PG05   5684.860791  25913.894850  -1011.744535   -233.914669
PG06 -15244.896216   8098.180941  20290.886395   -593.538701
PG07 -25427.560276  -6509.656772  -4597.283821   -193.733115
PG08  -4325.059138 -16204.841180 -20693.406383    425.716929
PG09 -20841.300433   2881.459904  16156.271245    739.517941
PG10  11481.440917 -12544.157722 -20033.329356   -578.933367
PG11  -1546.811361  15664.466105  21456.714261   -312.972477
PG12  10114.417513  21223.261374  12069.464822   -607.071190
PG13  11871.781483  20915.705854  11164.911321    352.488148
PG14 -13814.889115   9307.426906 -20521.769135    748.171864
PG15   6605.181750  15511.041600 -21070.624167    418.602742
PG16   1011.662361 -25999.881207   3626.998364    277.997720
PG17 -23073.699769  12633.255365  -4239.104509   -151.857665
PG18  25052.648623   4599.268902  -7970.757824   -332.395649
PG19 -19015.718496  17122.729301   5877.749099    701.612723
PG20  -3207.244784  19084.434921 -18137.839293    188.583455
PG21  -2692.977148  25037.525496   8383.991749    410.332713
PG22 -11378.333666  16311.442482 -17431.295102     12.893791
PG23  14829.584772   1170.247526 -21951.103323    656.623845
PG24  17057.674073  15442.524173 -14115.937226     52.317178
PG25  15518.573768   9654.371245  18971.268902    416.174158
PG26   5515.257977 -21435.520855  14144.231583   -373.255786
PG27   7091.459936 -20289.410308 -15684.939912      0.446588
PG28  16192.426731  -8413.837206  19312.149705   -505.580892
PG29  20502.362118    363.098972  16934.351750   -304.956901
PG30 -21021.624848   4266.903356 -15614.908102    252.668458
PG31   6645.385090 -13706.224918  21474.154877   -143.646850
PG32  20394.707320 -16861.052395    445.359606     99.301794
PR02  10922.385137 -21672.833949   7791.564878     12.170791
PR03  -2594.318631 -13650.656679  21424.655217     14.697830
PR05 -17095.215985  15792.970216  10470.075999    169.350255
PR06 -11431.541004  21914.243678  -6339.439780    -19.107033
PR07   2354.972645  13841.458134 -21267.019052    122.165928
PR08  13486.646240  -2166.897350 -21472.721098     -5.121576
PR09   2485.670919  20452.983153 -14949.741203    331.065601
PR11  14837.243746  12518.143049  16550.236650      6.252002
PR12   9396.564953  -5925.442882  22991.970037     70.120031
PR14 -11844.976630 -22581.842292  -1047.910698     32.847733
PR15 -14852.210284 -12026.186211 -16877.331844     55.400703
PR16  -9168.406640   6005.934664 -23015.277349     50.427432
PR17 -14590.143457  -9797.657619 -18463.669731    303.045078
PR18 -24618.175859  -4640.942254  -4907.352633    265.364117
PR19 -21783.485679   3789.131059  12658.256523     50.948196
PR20  -5892.870275  10142.213631  22670.541560    233.556945
PR21  11085.724280  10491.261164  20442.153549   -315.138335
PR22  24943.713550   4228.116731   3259.801283    129.867255
PR24   5006.480897 -10558.359351 -22665.656263   -170.364590
PR26  11774.881682   1140.041739 -22581.713018    -27.110081
PE02  -3524.872731 -28451.377661  -7343.977782     46.074277
PE03  -1250.992480 -17694.595341  23694.231122    -21.882204
PE04  20399.315903   5480.679832 -20737.152158   -167.658049
PE05  18402.394613 -19392.451958  12728.613530     40.436985
PE06  25884.310467  -2269.221290 -14197.338256   -282.184275
PE07 -27349.503213   9692.438076   5789.639918    -69.257522
PE08 -20222.871319  -5537.516196  20881.332969   -161.037116
PE09  27387.414017  -9664.959737  -5794.508189   -314.722183
PE10  26170.097702   9016.652792 -10503.787098   -797.724498
PE11  22804.198516    292.985337 -18879.192493   5229.387425
PE12  25278.907627  15290.813184  -1678.237586    -50.316903
PE13 -23017.779923   -759.025455  18598.421453    -56.649698
PE14  25562.772063   -255.090779  16939.370638   3470.136499
PE15 -25095.168640 -15671.424427   1054.740671   -264.710071
PE16  16452.398808  -8751.512647  23011.196779    -37.397979
PE18 -16104.306833  -8353.907996 -18426.497928   2871.629445
PE19    188.182342  17875.119994 -23581.991891   3016.168874
PE21  -9294.879402  25710.119444 -11341.539050   -748.356063
PE23   3656.486525  28447.960263   7291.661445    -37.855971
PE25   9623.212036 -25369.073932  11837.246493     21.890135
PE26  -7479.739900  14457.046727  24722.626238    328.005649
PE27 -16676.638504   7456.352836 -23287.846232  -1011.484993
PE28  12510.176248  12720.878378 -23621.934478    -49.746031
PE29 -18263.376211  19486.173534 -12761.811677   -214.046625
PE30 -14417.951672 -14162.211310 -21630.988819  -1131.958754
PE31  14112.261002  14929.487499  21319.663927   -147.404501
PE32 -12459.714192 -12750.732982  23629.818459     12.798569
PE33  12175.590576  21042.563442  16887.081460    -18.446757
PE34 -12344.809898 -21028.723484 -16781.828491   -259.230868
PE36   7591.575163 -14199.045139 -24841.447274   -577.316285
PC06  -9877.601693  37296.040506  17238.198391    293.063258
PC07 -12089.188095  20748.706149 -34546.537116    -25.679664
PC08 -24104.009050  28289.632872  19624.274707   -239.081883
PC11 -27801.824790   1806.901392  -1682.618299   -710.484118
PC12 -17633.617217   4158.315907  21222.019396    633.873909
PC13  19872.218352 -12810.655746 -14831.237810   -925.178920
PC14   9325.638944  15115.857474 -21524.109569   -334.571757
PC19 -17989.224089  14333.078672  15783.361350   -937.806813
PC20 -15105.159079  -3597.141537  23181.111093   -902.195607
PC21   2498.828253  21747.009237 -17280.692770   -850.475689
PC22 -10860.437226  25651.000837  -1316.167650    455.374943
PC23   3205.072416 -19657.141283  19554.354837   -456.834607
PC24  20772.049093  15228.272400  10762.416042   -401.863099
PC25  16297.164986  -4966.388106  22094.531384    846.845568
PC26  13627.269916  23849.225817  -5050.968864   -652.088891
PC27  -7993.093468 -15089.782356 -22095.874420    643.300849
PC28   9569.925567 -16011.445769 -20755.112168    526.226628
PC29 -26234.809313   7834.009331   5379.547924    614.911861
PC30 -25065.285269  -4592.694036 -11409.624179    465.108849
PC31   8708.656244  14838.228745  21943.649381    788.741214
PC32  -2577.263639 -21849.616708  17191.349994   -911.646206
PC33  17919.421543 -14439.338390 -15814.616043   -913.857696
PC34  24708.366192   5052.027561  11913.918588    963.459961
PC35 -11126.120210  16162.104307  19829.411809   -420.097803
PC36 -16670.593304   4094.368954 -21974.274615    274.110573
PC37 -12391.534156 -24269.839318   5951.255139   -934.245396
PC38  25625.466732  -8805.470486  -6664.876792    139.971540
PC39  -3563.523266  19349.666861 -19800.744261   -900.297227
PC41  11514.365122 -25445.931695     18.140919   -942.721081
PC42  14070.173967   6160.950685 -23266.540997   -892.510397
PJ02 -25318.892178  30997.898400  -8332.463319     -0.419396
PJ03 -26663.437687  22813.577002  28597.409509     -5.023109
PJ04 -32589.035388  26755.077802   5402.712037      0.881733
EOF
